ONEWEB-0427             
1 50499U 21132AG  24281.86783085  .00000239  00000+0  57447-3 0  9991
2 50499  87.9050  98.3123 0001486  81.6277 278.5024 13.18688626140253
ONEWEB-0429             
1 50500U 21132AH  24281.85517596  .00000112  00000+0  25167-3 0  9999
2 50500  87.9053  98.3276 0001817  93.5851 266.5489 13.18685856140227
ONEWEB-0432             
1 50502U 21132AK  24281.87572633  .00000314  00000+0  76317-3 0  9993
2 50502  87.9053  98.3163 0001816  75.9496 284.1838 13.18687908140226
ONEWEB-0440             
1 50503U 21132AL  24281.86307021  .00000183  00000+0  43240-3 0  9993
2 50503  87.9053  98.3105 0001614 106.4973 253.6337 13.18685126140213
ONEWEB-0450             
1 50504U 21132AM  24281.85690188  .00000114  00000+0  25721-3 0  9990
2 50504  87.9054  98.3403 0002047  91.2193 268.9174 13.18687597140247
ONEWEB-0410             
1 51622U 22012A   24281.85622299 -.00000064  00000+0 -19890-3 0  9994
2 51622  87.9096 128.8241 0000576  12.8103 347.3043 13.17649647132408
ONEWEB-0411             
1 51623U 22012B   24281.89170180  .00000619  00000+0  17356-2 0  9994
2 51623  87.8959 159.1362 0002215  66.5651 293.5709 13.10371238129726
